GLOBALSTAR M084         
1 38040U 11080A   24248.23430715 -.00000097  00000+0  39947-4 0  9992
2 38040  51.9992 199.0191 0000518  93.4146  45.5691 12.62266534586559
GLOBALSTAR M080         
1 38041U 11080B   24249.06617994 -.00000095  00000+0  46195-4 0  9992
2 38041  52.0046 197.9934 0000778  85.3622 355.6075 12.62264932586923
GLOBALSTAR M082         
1 38042U 11080C   24248.67237793 -.00000057  00000+0  26038-3 0  9995
2 38042  52.0070 154.6090 0000429   2.9526  27.7145 12.62265812587446
GLOBALSTAR M092         
1 38043U 11080D   24248.18152503 -.00000105  00000+0 -58328-5 0  9991
2 38043  52.0067 246.4646 0000276 112.6563 326.5963 12.62265570585830
GLOBALSTAR M090         
1 38044U 11080E   24248.69896525 -.00000056  00000+0  26799-3 0  9996
2 38044  51.9878 148.7043 0000516  36.7046 354.7502 12.62266939587567
GLOBALSTAR M086         
1 38045U 11080F   24248.64491894 -.00000060  00000+0  24405-3 0  9999
2 38045  51.9889 149.3966 0001535  52.1668 334.2637 12.62266392587504
GLOBALSTAR M097         
1 39072U 13005A   24248.50760298 -.00000091  00000+0  70402-4 0  9994
2 39072  52.0049  64.0725 0000851  64.9502 295.1453 12.62270223534735
GLOBALSTAR M093         
1 39073U 13005B   24248.63902222 -.00000091  00000+0  68908-4 0  9992
2 39073  51.9817  57.4284 0000812  63.0108 297.0841 12.62263592534702
